[{"OBJECT_NAME":"STARLINK-31910","OBJECT_ID":"2024-084L","EPOCH":"2026-03-09T22:30:20.259936","MEAN_MOTION":15.2744923,"ECCENTRICITY":0.00011468,"INCLINATION":43.0019,"RA_OF_ASC_NODE":40.1735,"ARG_OF_PERICENTER":235.7114,"MEAN_ANOMALY":124.3629,"EPHEMERIS_TYPE":0,"CLASSIFICATION_TYPE":"U","NORAD_CAT_ID":59664,"ELEMENT_SET_NO":999,"REV_AT_EPOCH":10441,"BSTAR":0.00081408902,"MEAN_MOTION_DOT":0.00022118,"MEAN_MOTION_DDOT":0},{"OBJECT_NAME":"OBJECT C","OBJECT_ID":"2024-092C","EPOCH":"2026-03-09T23:10:26.961312","MEAN_MOTION":15.27308901,"ECCENTRICITY":0.00097974,"INCLINATION":97.6475,"RA_OF_ASC_NODE":197.1606,"ARG_OF_PERICENTER":169.1353,"MEAN_ANOMALY":191.0098,"EPHEMERIS_TYPE":0,"CLASSIFICATION_TYPE":"U","NORAD_CAT_ID":59775,"ELEMENT_SET_NO":999,"REV_AT_EPOCH":10042,"BSTAR":0.00057925748,"MEAN_MOTION_DOT":0.00015454,"MEAN_MOTION_DDOT":0}]
